{"type": "FeatureCollection", "features": [ {"type": "Feature", "properties": {"norad_id": 30196, "name": "FENGYUN 1C DEB", "group": "fengyun-1c-debris", "lat": -50.279657129778776, "lon": -115.87016224627658, "alt_km": 868.9623344423017, "timestamp": "2025-12-08T03:50:07.271743+00:00", "meta": {"OBJECT_NAME": "FENGYUN 1C DEB", "OBJECT_ID": "1999-025VD", "EPOCH": "2025-12-07T05:00:25.320960", "MEAN_MOTION": 14.25845165, "ECCENTRICITY": 0.00870601, "INCLINATION": 98.6406, "RA_OF_ASC_NODE": 73.738, "ARG_OF_PERICENTER": 79.0989, "MEAN_ANOMALY": 311.7951, "EPHEMERIS_TYPE": 0, "CLASSIFICATION_TYPE": "U", "NORAD_CAT_ID": 30196, "ELEMENT_SET_NO": 999, "REV_AT_EPOCH": 98286, "BSTAR": 0.00011228115, "MEAN_MOTION_DOT": 2.35e-06, "MEAN_MOTION_DDOT": 0}, "tle": {"line1": "1 30196U 99025VD  25341.20862640  .00000235  00000+0  11228-3 0  9993", "line2": "2 30196  98.6406  73.7380 0087060  79.0989 311.7951 14.25845165982866"}}, "geometry": {"type": "Point", "coordinates": [-115.87016224627658, -50.279657129778776]}}, {"type": "Feature", "properties": {"norad_id": 30197, "name": "FENGYUN 1C DEB", "group": "fengyun-1c-debris", "lat": -67.09026842098014, "lon": 65.47716780287176, "alt_km": 736.9551599388906, "timestamp": "2025-12-08T03:50:07.271753+00:00", "meta": {"OBJECT_NAME": "FENGYUN 1C DEB", "OBJECT_ID": "1999-025VE", "EPOCH": "2025-12-07T05:42:27.711072", "MEAN_MOTION": 14.37153162, "ECCENTRICITY": 0.00568723, "INCLINATION": 98.9377, "RA_OF_ASC_NODE": 266.382, "ARG_OF_PERICENTER": 231.1999, "MEAN_ANOMALY": 289.924, "EPHEMERIS_TYPE": 0, "CLASSIFICATION_TYPE": "U", "NORAD_CAT_ID": 30197, "ELEMENT_SET_NO": 999, "REV_AT_EPOCH": 98407, "BSTAR": 0.0014197361, "MEAN_MOTION_DOT": 4.255e-05, "MEAN_MOTION_DDOT": 0}, "tle": {"line1": "1 30197U 99025VE  25341.23782073  .00004255  00000+0  14197-2 0  9991", "line2": "2 30197  98.9377 266.3820 0056872 231.1999 289.9240 14.37153162984079"}}, "geometry": {"type": "Point", "coordinates": [65.47716780287176, -67.09026842098014]}}, {"type": "Feature", "properties": {"norad_id": 30198, "name": "FENGYUN 1C DEB", "group": "fengyun-1c-debris", "lat": -13.40397878401185, "lon": 115.21599362057336, "alt_km": 782.1410456029926, "timestamp": "2025-12-08T03:50:07.271764+00:00", "meta": {"OBJECT_NAME": "FENGYUN 1C DEB", "OBJECT_ID": "1999-025VF", "EPOCH": "2025-12-07T01:41:07.618848", "MEAN_MOTION": 14.50203543, "ECCENTRICITY": 0.01070493, "INCLINATION": 98.4494, "RA_OF_ASC_NODE": 112.093, "ARG_OF_PERICENTER": 215.5401, "MEAN_ANOMALY": 205.0032, "EPHEMERIS_TYPE": 0, "CLASSIFICATION_TYPE": "U", "NORAD_CAT_ID": 30198, "ELEMENT_SET_NO": 999, "REV_AT_EPOCH": 98425, "BSTAR": 0.0032810642, "MEAN_MOTION_DOT": 0.0001371, "MEAN_MOTION_DDOT": 0}, "tle": {"line1": "1 30198U 99025VF  25341.07022707  .00013710  00000+0  32811-2 0  9994", "line2": "2 30198  98.4494 112.0930 0107049 215.5401 205.0032 14.50203543984253"}}, "geometry": {"type": "Point", "coordinates": [115.21599362057336, -13.40397878401185]}}, {"type": "Feature", "properties": {"norad_id": 30199, "name": "FENGYUN 1C DEB", "group": "fengyun-1c-debris", "lat": -16.65248068556751, "lon": -176.53280851870767, "alt_km": 800.7183004488634, "timestamp": "2025-12-08T03:50:07.271774+00:00", "meta": {"OBJECT_NAME": "FENGYUN 1C DEB", "OBJECT_ID": "1999-025VG", "EPOCH": "2025-12-07T00:20:40.330752", "MEAN_MOTION": 14.38461934, "ECCENTRICITY": 0.00779379, "INCLINATION": 98.3851, "RA_OF_ASC_NODE": 4.877, "ARG_OF_PERICENTER": 326.0205, "MEAN_ANOMALY": 63.162, "EPHEMERIS_TYPE": 0, "CLASSIFICATION_TYPE": "U", "NORAD_CAT_ID": 30199, "ELEMENT_SET_NO": 999, "REV_AT_EPOCH": 98328, "BSTAR": 0.0015734717, "MEAN_MOTION_DOT": 4.935e-05, "MEAN_MOTION_DDOT": 0}, "tle": {"line1": "1 30199U 99025VG  25341.01435568  .00004935  00000+0  15735-2 0  9997", "line2": "2 30199  98.3851   4.8770 0077937 326.0205  63.1620 14.38461934983286"}}, "geometry": {"type": "Point", "coordinates": [-176.53280851870767, -16.65248068556751]}}, {"type": "Feature", "properties": {"norad_id": 30200, "name": "FENGYUN 1C DEB", "group": "fengyun-1c-debris", "lat": 73.53308275757738, "lon": 143.86807106734375, "alt_km": 724.1906184859872, "timestamp": "2025-12-08T03:50:07.271784+00:00", "meta": {"OBJECT_NAME": "FENGYUN 1C DEB", "OBJECT_ID": "1999-025VH", "EPOCH": "2025-12-06T19:24:05.427360", "MEAN_MOTION": 14.22270157, "ECCENTRICITY": 0.0147504, "INCLINATION": 99.1132, "RA_OF_ASC_NODE": 175.3617, "ARG_OF_PERICENTER": 116.1262, "MEAN_ANOMALY": 245.5175, "EPHEMERIS_TYPE": 0, "CLASSIFICATION_TYPE": "U", "NORAD_CAT_ID": 30200, "ELEMENT_SET_NO": 999, "REV_AT_EPOCH": 97898, "BSTAR": 0.00026904613, "MEAN_MOTION_DOT": 6.21e-06, "MEAN_MOTION_DDOT": 0}, "tle": {"line1": "1 30200U 99025VH  25340.80839615  .00000621  00000+0  26905-3 0  9997", "line2": "2 30200  99.1132 175.3617 0147504 116.1262 245.5175 14.22270157978983"}}, "geometry": {"type": "Point", "coordinates": [143.86807106734375, 73.53308275757738]}}, {"type": "Feature", "properties": {"norad_id": 30201, "name": "FENGYUN 1C DEB", "group": "fengyun-1c-debris", "lat": -22.981059031816116, "lon": 120.09529306701945, "alt_km": 800.4320080411726, "timestamp": "2025-12-08T03:50:07.271794+00:00", "meta": {"OBJECT_NAME": "FENGYUN 1C DEB", "OBJECT_ID": "1999-025VJ", "EPOCH": "2025-12-05T21:56:27.512448", "MEAN_MOTION": 14.22919692, "ECCENTRICITY": 0.00288291, "INCLINATION": 99.4008, "RA_OF_ASC_NODE": 113.6714, "ARG_OF_PERICENTER": 332.5508, "MEAN_ANOMALY": 27.4144, "EPHEMERIS_TYPE": 0, "CLASSIFICATION_TYPE": "U", "NORAD_CAT_ID": 30201, "ELEMENT_SET_NO": 999, "REV_AT_EPOCH": 97730, "BSTAR": 0.00074646454, "MEAN_MOTION_DOT": 1.636e-05, "MEAN_MOTION_DDOT": 0}, "tle": {"line1": "1 30201U 99025VJ  25339.91420732  .00001636  00000+0  74646-3 0  9996", "line2": "2 30201  99.4008 113.6714 0028829 332.5508  27.4144 14.22919692977309"}}, "geometry": {"type": "Point", "coordinates": [120.09529306701945, -22.981059031816116]}}, {"type": "Feature", "properties": {"norad_id": 30202, "name": "FENGYUN 1C DEB", "group": "fengyun-1c-debris", "lat": -12.975271246133577, "lon": -102.69215144132741, "alt_km": 736.6099179170997, "timestamp": "2025-12-08T03:50:07.271804+00:00", "meta": {"OBJECT_NAME": "FENGYUN 1C DEB", "OBJECT_ID": "1999-025VK", "EPOCH": "2025-12-07T05:27:23.308704", "MEAN_MOTION": 14.52217982, "ECCENTRICITY": 0.00392935, "INCLINATION": 98.641, "RA_OF_ASC_NODE": 78.3565, "ARG_OF_PERICENTER": 75.9821, "MEAN_ANOMALY": 284.5737, "EPHEMERIS_TYPE": 0, "CLASSIFICATION_TYPE": "U", "NORAD_CAT_ID": 30202, "ELEMENT_SET_NO": 999, "REV_AT_EPOCH": 98209, "BSTAR": 0.0035797309, "MEAN_MOTION_DOT": 0.00014655, "MEAN_MOTION_DDOT": 0}, "tle": {"line1": "1 30202U 99025VK  25341.22735311  .00014655  00000+0  35797-2 0  9994", "line2": "2 30202  98.6410  78.3565 0039293  75.9821 284.5737 14.52217982982094"}}, "geometry": {"type": "Point", "coordinates": [-102.69215144132741, -12.975271246133577]}}, {"type": "Feature", "properties": {"norad_id": 30205, "name": "FENGYUN 1C DEB", "group": "fengyun-1c-debris", "lat": -43.86491619740599, "lon": -95.10227708834579, "alt_km": 867.0939044197512, "timestamp": "2025-12-08T03:50:07.271814+00:00", "meta": {"OBJECT_NAME": "FENGYUN 1C DEB", "OBJECT_ID": "1999-025VN", "EPOCH": "2025-12-07T06:08:44.205216", "MEAN_MOTION": 13.88034197, "ECCENTRICITY": 0.01207971, "INCLINATION": 98.9968, "RA_OF_ASC_NODE": 92.785, "ARG_OF_PERICENTER": 194.6653, "MEAN_ANOMALY": 195.5989, "EPHEMERIS_TYPE": 0, "CLASSIFICATION_TYPE": "U", "NORAD_CAT_ID": 30205, "ELEMENT_SET_NO": 999, "REV_AT_EPOCH": 95562, "BSTAR": 0.00065760839, "MEAN_MOTION_DOT": 7.88e-06, "MEAN_MOTION_DDOT": 0}, "tle": {"line1": "1 30205U 99025VN  25341.25606719  .00000788  00000+0  65761-3 0  9996", "line2": "2 30205  98.9968  92.7850 0120797 194.6653 195.5989 13.88034197955629"}}, "geometry": {"type": "Point", "coordinates": [-95.10227708834579, -43.86491619740599]}}, {"type": "Feature", "properties": {"norad_id": 30206, "name": "FENGYUN 1C DEB", "group": "fengyun-1c-debris", "lat": -46.18787461034009, "lon": 152.8550987999814, "alt_km": 839.0336198005634, "timestamp": "2025-12-08T03:50:07.271824+00:00", "meta": {"OBJECT_NAME": "FENGYUN 1C DEB", "OBJECT_ID": "1999-025VP", "EPOCH": "2025-12-06T22:37:38.626752", "MEAN_MOTION": 14.49118191, "ECCENTRICITY": 0.01462834, "INCLINATION": 98.231, "RA_OF_ASC_NODE": 340.3454, "ARG_OF_PERICENTER": 53.9702, "MEAN_ANOMALY": 307.4947, "EPHEMERIS_TYPE": 0, "CLASSIFICATION_TYPE": "U", "NORAD_CAT_ID": 30206, "ELEMENT_SET_NO": 999, "REV_AT_EPOCH": 99317, "BSTAR": 0.00077388652, "MEAN_MOTION_DOT": 3.324e-05, "MEAN_MOTION_DDOT": 0}, "tle": {"line1": "1 30206U 99025VP  25340.94280818  .00003324  00000+0  77389-3 0  9998", "line2": "2 30206  98.2310 340.3454 0146283  53.9702 307.4947 14.49118191993171"}}, "geometry": {"type": "Point", "coordinates": [152.8550987999814, -46.18787461034009]}}, {"type": "Feature", "properties": {"norad_id": 30207, "name": "FENGYUN 1C DEB", "group": "fengyun-1c-debris", "lat": -81.32879904171865, "lon": 174.87760151032035, "alt_km": 1037.0270012509754, "timestamp": "2025-12-08T03:50:07.271834+00:00", "meta": {"OBJECT_NAME": "FENGYUN 1C DEB", "OBJECT_ID": "1999-025VQ", "EPOCH": "2025-12-06T18:13:26.829120", "MEAN_MOTION": 13.79129527, "ECCENTRICITY": 0.02603506, "INCLINATION": 98.5741, "RA_OF_ASC_NODE": 92.0216, "ARG_OF_PERICENTER": 164.5064, "MEAN_ANOMALY": 354.5939, "EPHEMERIS_TYPE": 0, "CLASSIFICATION_TYPE": "U", "NORAD_CAT_ID": 30207, "ELEMENT_SET_NO": 999, "REV_AT_EPOCH": 94980, "BSTAR": 0.00055232099, "MEAN_MOTION_DOT": 6.91e-06, "MEAN_MOTION_DDOT": 0}, "tle": {"line1": "1 30207U 99025VQ  25340.75933830  .00000691  00000+0  55232-3 0  9994", "line2": "2 30207  98.5741  92.0216 0260350 164.5064 354.5939 13.79129527949804"}}, "geometry": {"type": "Point", "coordinates": [174.87760151032035, -81.32879904171865]}}]}